BEIDOU-2 IGSO-1 (C06)   
1 36828U 10036A   24285.63723772 -.00000114  00000+0  00000+0 0  9990
2 36828  54.2542 168.5167 0040838 203.3275 342.3592  1.00248585 52053
BEIDOU-2 G4 (C04)       
1 37210U 10057A   24292.88729965 -.00000113  00000+0  00000+0 0  9993
2 37210   2.1424  69.8658 0008877 169.8834 267.5909  1.00269881 51211
BEIDOU-2 IGSO-2 (C07)   
1 37256U 10068A   24292.85895293 -.00000211  00000+0  00000+0 0  9999
2 37256  48.6543 279.3073 0039724 218.0489 307.0825  1.00262808 50718
BEIDOU-2 IGSO-3 (C08)   
1 37384U 11013A   24289.77720606 -.00000192  00000+0  00000+0 0  9992
2 37384  61.5353  45.9541 0032448 176.7761 189.7733  1.00277950 49556
BEIDOU-2 IGSO-4 (C09)   
1 37763U 11038A   24292.64174860 -.00000039  00000+0  00000+0 0  9995
2 37763  54.5598 171.0901 0129260 228.8651 314.4471  1.00281935 48561
BEIDOU-2 IGSO-5 (C10)   
1 37948U 11073A   24291.92997740 -.00000171  00000+0  00000+0 0  9996
2 37948  48.7908 279.0133 0102579 221.9322 316.3607  1.00264480 47045
BEIDOU-2 G5 (C05)       
1 38091U 12008A   24292.88452054  .00000057  00000+0  00000+0 0  9997
2 38091   2.0624  70.6684 0008823 217.9896 116.3951  1.00267540 46282
BEIDOU-2 M3 (C11)       
1 38250U 12018A   24290.82122616 -.00000054  00000+0  00000+0 0  9993
2 38250  56.2523 325.2896 0025252 263.5350  96.2393  1.86233413 84968
BEIDOU-2 M4 (C12)       
1 38251U 12018B   24292.36224447 -.00000065  00000+0  00000+0 0  9992
2 38251  56.1570 324.5004 0016163 264.4413  95.4290  1.86231836 84643
BEIDOU-2 M6 (C14)       
1 38775U 12050B   24292.07178206  .00000003  00000+0  00000+0 0  9999
2 38775  56.0155  83.0590 0010516 347.1610  12.8051  1.86230943 82007
BEIDOU-2 G6 (C02)       
1 38953U 12059A   24292.91299576 -.00000176  00000+0  00000+0 0  9995
2 38953   2.8728  79.4713 0006251 298.7622  62.3963  1.00272383 43831
BEIDOU-3S IGSO-1S (C31) 
1 40549U 15019A   24292.48353813 -.00000181  00000+0  00000+0 0  9991
2 40549  50.3438 302.7294 0036382 198.4401 157.3007  1.00277312 34983
BEIDOU-3S M2S (C58)     
1 40748U 15037A   24292.02538251 -.00000062  00000+0  00000+0 0  9991
2 40748  55.3856 322.8552 0013143 253.4894 106.4196  1.86229005 62818
BEIDOU-3S M1S (C57)     
1 40749U 15037B   24292.29831621 -.00000064  00000+0  00000+0 0  9990
2 40749  55.3881 322.8323 0003658 314.7456  45.2770  1.86227455 62824
BEIDOU-3S IGSO-2S (C56) 
1 40938U 15053A   24292.82528958 -.00000157  00000+0  00000+0 0  9996
2 40938  50.1698 265.9563 0052789 189.8319 325.7303  1.00277678 33277
BEIDOU-2 IGSO-6 (C13)   
1 41434U 16021A   24292.78755052 -.00000176  00000+0  00000+0 0  9997
2 41434  59.3665  44.1100 0053869 222.9322 139.2954  1.00290084 31400
BEIDOU-2 G7 (C03)       
1 41586U 16037A   24292.86075242 -.00000355  00000+0  00000+0 0  9996
2 41586   1.6736  66.4614 0006691 348.9924  32.8135  1.00272709   816
BEIDOU-3 M1 (C19)       
1 43001U 17069A   24289.15293664  .00000038  00000+0  00000+0 0  9991
2 43001  56.1626  83.2687 0007105 303.5243  56.4202  1.86231100 47241
BEIDOU-3 M2 (C20)       
1 43002U 17069B   24292.84910558 -.00000003  00000+0  00000+0 0  9993
2 43002  56.1653  83.1817 0005290 340.5884  19.3811  1.86230845 47307
BEIDOU-3 M7 (C27)       
1 43107U 18003A   24292.06020479 -.00000065  00000+0  00000+0 0  9994
2 43107  54.8441 323.3909 0002230  78.4113 281.6671  1.86232332 46048
BEIDOU-3 M8 (C28)       
1 43108U 18003B   24292.00166379 -.00000064  00000+0  00000+0 0  9998
2 43108  54.8370 323.3779 0005153 257.6447 102.3512  1.86230784 46056
BEIDOU-3 M4 (C22)       
1 43207U 18018A   24292.44274340  .00000000  00000+0  00000+0 0  9999
2 43207  56.1244  83.2438 0004367  29.8886 330.1278  1.86231032 45446
BEIDOU-3 M3 (C21)       
1 43208U 18018B   24292.50937327  .00000000  00000+0  00000+0 0  9998
2 43208  56.1243  83.2458 0004941 323.1962  36.7610  1.86231068 45449
BEIDOU-3 M9 (C29)       
1 43245U 18029A   24292.19261760 -.00000063  00000+0  00000+0 0  9997
2 43245  54.7233 321.0818 0002368 248.7829 111.2418  1.86232359 44595
BEIDOU-3 M10 (C30)      
1 43246U 18029B   24292.12211067 -.00000063  00000+0  00000+0 0  9996
2 43246  54.7209 321.1121 0003091 342.6574  17.3825  1.86232768 44583
BEIDOU-2 IGSO-7 (C16)   
1 43539U 18057A   24292.60098706 -.00000092  00000+0  00000+0 0  9990
2 43539  55.1471 168.3140 0078058 232.7865 316.1968  1.00273957 23051
BEIDOU-3 M5 (C23)       
1 43581U 18062A   24291.27308155  .00000020  00000+0  00000+0 0  9997
2 43581  54.1188 202.9795 0003299 304.2685  55.7370  1.86228485 42316
BEIDOU-3 M6 (C24)       
1 43582U 18062B   24292.21220832  .00000024  00000+0  00000+0 0  9992
2 43582  54.1183 202.9369 0006075  24.9840 335.0880  1.86229616 42332
BEIDOU-3 M12 (C26)      
1 43602U 18067A   24292.14563609  .00000025  00000+0  00000+0 0  9995
2 43602  54.2097 201.6319 0008046  28.1701 331.9186  1.86227575 41811
BEIDOU-3 M11 (C25)      
1 43603U 18067B   24292.27902155  .00000025  00000+0  00000+0 0  9993
2 43603  54.2069 201.5922 0004752  19.4835 340.5807  1.86227080 41841
BEIDOU-3 M13 (C32)      
1 43622U 18072A   24292.77732464 -.00000003  00000+0  00000+0 0  9996
2 43622  56.0963  82.7605 0003972 298.7608  61.1889  1.86231142 41362
BEIDOU-3 M14 (C33)      
1 43623U 18072B   24291.03194126  .00000014  00000+0  00000+0 0  9993
2 43623  56.0965  82.8120 0002390   0.9068 359.0926  1.86231115 41321
BEIDOU-3 M16 (C35)      
1 43647U 18078A   24292.26788989 -.00000064  00000+0  00000+0 0  9993
2 43647  54.6198 321.1679 0006067   8.4949 351.5652  1.86232120 40850
BEIDOU-3 M15 (C34)      
1 43648U 18078B   24292.39701319 -.00000065  00000+0  00000+0 0  9991
2 43648  54.6155 321.1658 0002723   5.8308 354.2215  1.86232096 40875
BEIDOU-3 G1 (C59)       
1 43683U 18085A   24292.84564986 -.00000277  00000+0  00000+0 0  9990
2 43683   2.4933 105.0829 0002070  44.8076 322.4568  1.00271170 21989
BEIDOU-3 M17 (C36)      
1 43706U 18093A   24291.47514191  .00000021  00000+0  00000+0 0  9992
2 43706  54.2018 202.9200 0008218 292.2459  67.7052  1.86228134 40229
BEIDOU-3 M18 (C37)      
1 43707U 18093B   24292.41339929  .00000024  00000+0  00000+0 0  9995
2 43707  54.2025 202.8800 0007150 325.5934  34.4043  1.86229718 40236
BEIDOU-3 IGSO-1 (C38)   
1 44204U 19023A   24292.68899663 -.00000233  00000+0  00000+0 0  9990
2 44204  57.8287  43.9370 0024627 207.7200 142.8688  1.00263923  1125
BEIDOU-2 G8 (C01)       
1 44231U 19027A   24292.84664877 -.00000249  00000+0  00000+0 0  9996
2 44231   1.7809  74.5161 0004353 188.0716 214.5380  1.00268336 20005
BEIDOU-3 IGSO-2 (C39)   
1 44337U 19035A   24292.55876527 -.00000090  00000+0  00000+0 0  9991
2 44337  55.1821 164.1885 0034751 201.7009 340.6961  1.00258479 19585
BEIDOU-3 M24 (C46)      
1 44542U 19061A   24289.79849419  .00000008  00000+0  00000+0 0  9998
2 44542  54.4298 203.2872 0008678   2.1774 357.8534  1.86229305 34443
BEIDOU-3 M23 (C45)      
1 44543U 19061B   24292.38373344  .00000024  00000+0  00000+0 0  9995
2 44543  54.4279 203.1686 0005521 353.0210 212.8530  1.86229376 34491
BEIDOU-3 IGSO-3 (C40)   
1 44709U 19073A   24292.39161824 -.00000189  00000+0  00000+0 0  9994
2 44709  55.8435 287.4178 0040977 191.1880 168.6806  1.00264841 18378
BEIDOU-3 M22 (C44)      
1 44793U 19078A   24292.32806604 -.00000064  00000+0  00000+0 0  9999
2 44793  54.4673 321.0828 0004686  13.8127 346.2493  1.86231993 33344
BEIDOU-3 M21 (C43)      
1 44794U 19078B   24291.92059958 -.00000062  00000+0  00000+0 0  9995
2 44794  54.4411 321.0703 0002881 355.1993   4.8489  1.86232462 33349
BEIDOU-3 M19 (C41)      
1 44864U 19090A   24291.91718032  .00000004  00000+0  00000+0 0  9996
2 44864  56.0299  82.9533 0015549 279.3315 270.7028  1.86231368 32923
BEIDOU-3 M20 (C42)      
1 44865U 19090B   24292.53486243 -.00000001  00000+0  00000+0 0  9990
2 44865  56.0322  82.9661 0013008 294.1804  39.6782  1.86231319 32913
BEIDOU-3 G2 (C60)       
1 45344U 20017A   24292.78257394 -.00000143  00000+0  00000+0 0  9991
2 45344   2.4826  33.9697 0004159 199.3437 156.2273  1.00271626 17173
BEIDOU-3 G3 (C61)       
1 45807U 20040A   24292.86075241 -.00000355  00000+0  00000+0 0  9994
2 45807   1.0130  53.9458 0002996 288.9946 105.2703  1.00266060 15990
BEIDOU-3 G4 (C62)       
1 56564U 23066A   24292.80058258 -.00000115  00000+0  00000+0 0  9994
2 56564   1.8195 288.7089 0005536 245.6368 301.6703  1.00272031  5312
BEIDOU-3 M28 (C50)      
1 58654U 23207A   24292.54040251 -.00000003  00000+0  00000+0 0  9994
2 58654  55.2154  82.8629 0000903 206.1419 153.8448  1.86232016  5548
BEIDOU-3 M26 (C48)      
1 58655U 23207B   24290.72878800  .00000016  00000+0  00000+0 0  9995
2 58655  55.2157  82.9100 0002318 215.6483 144.3380  1.86231549  5499
